COSMOS 2151             
1 21422U 91042A   25335.28017663  .00001745  00000+0  13940-3 0  9994
2 21422  82.4965 178.5457 0013509  37.2268 322.9889 14.99620518848444
SL-14 R/B               
1 21423U 91042B   25335.03171532  .00000525  00000+0  63568-4 0  9991
2 21423  82.4917 312.7033 0016413 200.3816 159.6745 14.81721079838465
ERS-1                   
1 21574U 91050A   25335.05834119  .00000379  00000+0  13605-3 0  9999
2 21574  98.7912 345.8209 0032756 133.6982 226.6927 14.39350119801541
ARIANE 40 R/B           
1 21610U 91050F   25335.13571210  .00000398  00000+0  13195-3 0  9994
2 21610  98.2182  25.9842 0003492  32.8397 327.3010 14.42797309804781
INTERCOSMOS 25          
1 21819U 91086A   25335.15939435  .00002472  00000+0  48950-3 0  9995
2 21819  82.6067   9.5790 1487202 329.3778  22.8055 12.11661350484751
SL-8 R/B                
1 21876U 92008B   25335.11796976  .00000168  00000+0  15712-3 0  9990
2 21876  82.9264 341.0919 0035779  51.5780  13.2424 13.75955133695863
SL-8 R/B                
1 21938U 92020B   25335.22179255  .00000064  00000+0  51068-4 0  9990
2 21938  82.9314 226.8695 0028185 210.7636 305.7825 13.75524502687598
USA 81                  
1 21949U 92023A   25335.08799433  .00000202  00000+0  67585-4 0  9990
2 21949  85.0089 188.2955 0001938  63.4077 296.7314 14.32320134 80679
COSMOS 2219             
1 22219U 92076A   25335.12336441 -.00000259  00000+0 -11119-3 0  9995
2 22219  71.0596 224.1148 0018779 342.9390  17.1099 14.14064591704441
SL-16 R/B               
1 22220U 92076B   25335.28009119  .00000146  00000+0  96891-4 0  9997
2 22220  71.0017  35.6715 0015071 249.2371 172.9701 14.16840569707897
COSMOS 2221             
1 22236U 92080A   25335.17743170  .00002461  00000+0  21848-3 0  9990
2 22236  82.5055  13.3921 0015223 157.9946 202.1933 14.95691061766062
SL-16 R/B               
1 22285U 92093B   25335.15401146 -.00000204  00000+0 -80075-4 0  9993
2 22285  71.0203 211.1158 0001941 107.3326 252.8009 14.15425918699213
