CCSDS_OMM_VERS = 2.0
CREATION_DATE  = 
ORIGINATOR     = 

OBJECT_NAME    = COSMOS 2151
OBJECT_ID      = 1991-042A
CENTER_NAME    = EARTH
REF_FRAME      = TEME
TIME_SYSTEM    = UTC
MEAN_ELEMENT_THEORY = SGP/SGP4

EPOCH          = 2025-12-01T06:43:27.260832
MEAN_MOTION    = 14.99620518
ECCENTRICITY   = .00135094
INCLINATION    = 82.4965
RA_OF_ASC_NODE = 178.5457
ARG_OF_PERICENTER = 37.2268
MEAN_ANOMALY   = 322.9889

EPHEMERIS_TYPE = 0
CLASSIFICATION_TYPE = U
NORAD_CAT_ID   = 21422
ELEMENT_SET_NO = 999
REV_AT_EPOCH   = 84844
BSTAR          = .13940063E-3
MEAN_MOTION_DOT = .1745E-4
MEAN_MOTION_DDOT = 0

CCSDS_OMM_VERS = 2.0
CREATION_DATE  = 
ORIGINATOR     = 

OBJECT_NAME    = SL-14 R/B
OBJECT_ID      = 1991-042B
CENTER_NAME    = EARTH
REF_FRAME      = TEME
TIME_SYSTEM    = UTC
MEAN_ELEMENT_THEORY = SGP/SGP4

EPOCH          = 2025-12-01T00:45:40.203648
MEAN_MOTION    = 14.81721079
ECCENTRICITY   = .00164139
INCLINATION    = 82.4917
RA_OF_ASC_NODE = 312.7033
ARG_OF_PERICENTER = 200.3816
MEAN_ANOMALY   = 159.6745

EPHEMERIS_TYPE = 0
CLASSIFICATION_TYPE = U
NORAD_CAT_ID   = 21423
ELEMENT_SET_NO = 999
REV_AT_EPOCH   = 83846
BSTAR          = .63567586E-4
MEAN_MOTION_DOT = .525E-5
MEAN_MOTION_DDOT = 0

CCSDS_OMM_VERS = 2.0
CREATION_DATE  = 
ORIGINATOR     = 

OBJECT_NAME    = ERS-1
OBJECT_ID      = 1991-050A
CENTER_NAME    = EARTH
REF_FRAME      = TEME
TIME_SYSTEM    = UTC
MEAN_ELEMENT_THEORY = SGP/SGP4

EPOCH          = 2025-12-01T01:24:00.678816
MEAN_MOTION    = 14.39350119
ECCENTRICITY   = .00327563
INCLINATION    = 98.7912
RA_OF_ASC_NODE = 345.8209
ARG_OF_PERICENTER = 133.6982
MEAN_ANOMALY   = 226.6927

EPHEMERIS_TYPE = 0
CLASSIFICATION_TYPE = U
NORAD_CAT_ID   = 21574
ELEMENT_SET_NO = 999
REV_AT_EPOCH   = 80154
BSTAR          = .13605399E-3
MEAN_MOTION_DOT = .379E-5
MEAN_MOTION_DDOT = 0

CCSDS_OMM_VERS = 2.0
CREATION_DATE  = 
ORIGINATOR     = 

OBJECT_NAME    = ARIANE 40 R/B
OBJECT_ID      = 1991-050F
CENTER_NAME    = EARTH
REF_FRAME      = TEME
TIME_SYSTEM    = UTC
MEAN_ELEMENT_THEORY = SGP/SGP4

EPOCH          = 2025-12-01T03:15:25.525440
MEAN_MOTION    = 14.42797309
ECCENTRICITY   = .00034923
INCLINATION    = 98.2182
RA_OF_ASC_NODE = 25.9842
ARG_OF_PERICENTER = 32.8397
MEAN_ANOMALY   = 327.3010

EPHEMERIS_TYPE = 0
CLASSIFICATION_TYPE = U
NORAD_CAT_ID   = 21610
ELEMENT_SET_NO = 999
REV_AT_EPOCH   = 80478
BSTAR          = .13194974E-3
MEAN_MOTION_DOT = .398E-5
MEAN_MOTION_DDOT = 0

CCSDS_OMM_VERS = 2.0
CREATION_DATE  = 
ORIGINATOR     = 

OBJECT_NAME    = INTERCOSMOS 25
OBJECT_ID      = 1991-086A
CENTER_NAME    = EARTH
REF_FRAME      = TEME
TIME_SYSTEM    = UTC
MEAN_ELEMENT_THEORY = SGP/SGP4

EPOCH          = 2025-12-01T03:49:31.671840
MEAN_MOTION    = 12.11661350
ECCENTRICITY   = .14872021
INCLINATION    = 82.6067
RA_OF_ASC_NODE = 9.5790
ARG_OF_PERICENTER = 329.3778
MEAN_ANOMALY   = 22.8055

EPHEMERIS_TYPE = 0
CLASSIFICATION_TYPE = U
NORAD_CAT_ID   = 21819
ELEMENT_SET_NO = 999
REV_AT_EPOCH   = 48475
BSTAR          = .48950346E-3
MEAN_MOTION_DOT = .2472E-4
MEAN_MOTION_DDOT = 0

CCSDS_OMM_VERS = 2.0
CREATION_DATE  = 
ORIGINATOR     = 

OBJECT_NAME    = SL-8 R/B
OBJECT_ID      = 1992-008B
CENTER_NAME    = EARTH
REF_FRAME      = TEME
TIME_SYSTEM    = UTC
MEAN_ELEMENT_THEORY = SGP/SGP4

EPOCH          = 2025-12-01T02:49:52.587264
MEAN_MOTION    = 13.75955133
ECCENTRICITY   = .00357793
INCLINATION    = 82.9264
RA_OF_ASC_NODE = 341.0919
ARG_OF_PERICENTER = 51.5780
MEAN_ANOMALY   = 13.2424

EPHEMERIS_TYPE = 0
CLASSIFICATION_TYPE = U
NORAD_CAT_ID   = 21876
ELEMENT_SET_NO = 999
REV_AT_EPOCH   = 69586
BSTAR          = .15712105E-3
MEAN_MOTION_DOT = .168E-5
MEAN_MOTION_DDOT = 0

CCSDS_OMM_VERS = 2.0
CREATION_DATE  = 
ORIGINATOR     = 

OBJECT_NAME    = SL-8 R/B
OBJECT_ID      = 1992-020B
CENTER_NAME    = EARTH
REF_FRAME      = TEME
TIME_SYSTEM    = UTC
MEAN_ELEMENT_THEORY = SGP/SGP4

EPOCH          = 2025-12-01T05:19:22.876320
MEAN_MOTION    = 13.75524502
ECCENTRICITY   = .00281851
INCLINATION    = 82.9314
RA_OF_ASC_NODE = 226.8695
ARG_OF_PERICENTER = 210.7636
MEAN_ANOMALY   = 305.7825

EPHEMERIS_TYPE = 0
CLASSIFICATION_TYPE = U
NORAD_CAT_ID   = 21938
ELEMENT_SET_NO = 999
REV_AT_EPOCH   = 68759
BSTAR          = .51067787E-4
MEAN_MOTION_DOT = .64E-6
MEAN_MOTION_DDOT = 0

CCSDS_OMM_VERS = 2.0
CREATION_DATE  = 
ORIGINATOR     = 

OBJECT_NAME    = USA 81
OBJECT_ID      = 1992-023A
CENTER_NAME    = EARTH
REF_FRAME      = TEME
TIME_SYSTEM    = UTC
MEAN_ELEMENT_THEORY = SGP/SGP4

EPOCH          = 2025-12-01T02:06:42.710112
MEAN_MOTION    = 14.32320134
ECCENTRICITY   = .00019386
INCLINATION    = 85.0089
RA_OF_ASC_NODE = 188.2955
ARG_OF_PERICENTER = 63.4077
MEAN_ANOMALY   = 296.7314

EPHEMERIS_TYPE = 0
CLASSIFICATION_TYPE = U
NORAD_CAT_ID   = 21949
ELEMENT_SET_NO = 999
REV_AT_EPOCH   = 8067
BSTAR          = .67584917E-4
MEAN_MOTION_DOT = .202E-5
MEAN_MOTION_DDOT = 0

CCSDS_OMM_VERS = 2.0
CREATION_DATE  = 
ORIGINATOR     = 

OBJECT_NAME    = COSMOS 2219
OBJECT_ID      = 1992-076A
CENTER_NAME    = EARTH
REF_FRAME      = TEME
TIME_SYSTEM    = UTC
MEAN_ELEMENT_THEORY = SGP/SGP4

EPOCH          = 2025-12-01T02:57:38.685024
MEAN_MOTION    = 14.14064591
ECCENTRICITY   = .00187798
INCLINATION    = 71.0596
RA_OF_ASC_NODE = 224.1148
ARG_OF_PERICENTER = 342.9390
MEAN_ANOMALY   = 17.1099

EPHEMERIS_TYPE = 0
CLASSIFICATION_TYPE = U
NORAD_CAT_ID   = 22219
ELEMENT_SET_NO = 999
REV_AT_EPOCH   = 70444
BSTAR          = -.11118766E-3
MEAN_MOTION_DOT = -.259E-5
MEAN_MOTION_DDOT = 0

CCSDS_OMM_VERS = 2.0
CREATION_DATE  = 
ORIGINATOR     = 

OBJECT_NAME    = SL-16 R/B
OBJECT_ID      = 1992-076B
CENTER_NAME    = EARTH
REF_FRAME      = TEME
TIME_SYSTEM    = UTC
MEAN_ELEMENT_THEORY = SGP/SGP4

EPOCH          = 2025-12-01T06:43:19.878816
MEAN_MOTION    = 14.16840569
ECCENTRICITY   = .00150717
INCLINATION    = 71.0017
RA_OF_ASC_NODE = 35.6715
ARG_OF_PERICENTER = 249.2371
MEAN_ANOMALY   = 172.9701

EPHEMERIS_TYPE = 0
CLASSIFICATION_TYPE = U
NORAD_CAT_ID   = 22220
ELEMENT_SET_NO = 999
REV_AT_EPOCH   = 70789
BSTAR          = .96891187E-4
MEAN_MOTION_DOT = .146E-5
MEAN_MOTION_DDOT = 0

CCSDS_OMM_VERS = 2.0
CREATION_DATE  = 
ORIGINATOR     = 

OBJECT_NAME    = COSMOS 2221
OBJECT_ID      = 1992-080A
CENTER_NAME    = EARTH
REF_FRAME      = TEME
TIME_SYSTEM    = UTC
MEAN_ELEMENT_THEORY = SGP/SGP4

EPOCH          = 2025-12-01T04:15:30.098880
MEAN_MOTION    = 14.95691061
ECCENTRICITY   = .00152239
INCLINATION    = 82.5055
RA_OF_ASC_NODE = 13.3921
ARG_OF_PERICENTER = 157.9946
MEAN_ANOMALY   = 202.1933

EPHEMERIS_TYPE = 0
CLASSIFICATION_TYPE = U
NORAD_CAT_ID   = 22236
ELEMENT_SET_NO = 999
REV_AT_EPOCH   = 76606
BSTAR          = .21847656E-3
MEAN_MOTION_DOT = .2461E-4
MEAN_MOTION_DDOT = 0

CCSDS_OMM_VERS = 2.0
CREATION_DATE  = 
ORIGINATOR     = 

OBJECT_NAME    = SL-16 R/B
OBJECT_ID      = 1992-093B
CENTER_NAME    = EARTH
REF_FRAME      = TEME
TIME_SYSTEM    = UTC
MEAN_ELEMENT_THEORY = SGP/SGP4

EPOCH          = 2025-12-01T03:41:46.590144
MEAN_MOTION    = 14.15425918
ECCENTRICITY   = .00019413
INCLINATION    = 71.0203
RA_OF_ASC_NODE = 211.1158
ARG_OF_PERICENTER = 107.3326
MEAN_ANOMALY   = 252.8009

EPHEMERIS_TYPE = 0
CLASSIFICATION_TYPE = U
NORAD_CAT_ID   = 22285
ELEMENT_SET_NO = 999
REV_AT_EPOCH   = 69921
BSTAR          = -.80075115E-4
MEAN_MOTION_DOT = -.204E-5
MEAN_MOTION_DDOT = 0

